GAOFEN 3                
1 41727U 16049A   20130.48211465 -.00000031  00000-0  39304-5 0  9997
2 41727  98.4129 138.6423 0001899  84.7146 275.4263 14.42212239197253
SKYSAT-C4               
1 41771U 16058B   20130.44001175  .00001103  00000-0  31961-4 0  9997
2 41771  97.2113 201.2878 0002500  90.7881 269.3650 15.37676382202679
SKYSAT-C5               
1 41772U 16058C   20130.55324389  .00000473  00000-0  22507-4 0  9990
2 41772  97.3594 200.9821 0001924  71.7698  41.7800 15.23799657202611
SKYSAT-C2               
1 41773U 16058D   20130.28664120  .00001106  00000-0  31893-4 0  9993
2 41773  97.2116 201.4460 0001887  74.5776 285.5678 15.37804299202673
SKYSAT-C3               
1 41774U 16058E   20130.36374072  .00001103  00000-0  31872-4 0  9991
2 41774  97.2111 201.4995 0003604  79.1444 281.0207 15.37745171202676
ALSAT 1B                
1 41785U 16059C   20130.43734742 -.00000003  00000-0  84526-5 0  9990
2 41785  98.0162 187.4251 0032574  76.3851 284.0979 14.63359237193197
PATHFINDER 1            
1 41787U 16059E   20130.15157056  .00000050  00000-0  18587-4 0  9992
2 41787  98.0189 188.1397 0031548  75.1441 285.3260 14.63727797193196
SCATSAT 1               
1 41790U 16059H   20130.43331977  .00000009  00000-0  13118-4 0  9992
2 41790  98.1643 171.8731 0006963  48.8551 311.3251 14.50909313191560
WORLDVIEW-4 (WV-4)      
1 41848U 16067A   20130.55840999 -.00000016  00000-0  19288-5 0  9991
2 41848  97.8464 235.7977 0006438 176.4094 183.7191 15.40511755190843
GOKTURK 1A              
1 41875U 16073A   20130.48344832  .00000015  00000-0  12115-4 0  9994
2 41875  98.1578  25.1584 0001224  68.6901 291.4431 14.62753631182866
RESOURCESAT-2A          
1 41877U 16074A   20130.52212462 -.00000029  00000-0  64053-5 0  9990
2 41877  98.5936 200.6993 0001606 103.9428 256.1931 14.21682155177511
CARTOSAT-2D             
1 41948U 17008A   20130.39655571  .00000541  00000-0  28947-4 0  9993
2 41948  97.4946 189.1461 0008884 123.8673 236.3410 15.19215478179037
SENTINEL-2B             
1 42063U 17013A   20130.55714043 -.00000009  00000-0  13301-4 0  9994
2 42063  98.5707 205.3327 0001138  78.7415 281.3898 14.30814025165818
ZHUHAI-1 02 (CAS 4B)    
1 42759U 17034B   20130.52243940  .00000146  00000-0  22323-4 0  9994
2 42759  43.0183 240.9502 0010065 150.8098 313.3946 15.09808952160084
NUSAT-3 (MILANESAT)     
1 42760U 17034C   20130.50138657  .00000299  00000-0  31260-4 0  9991
2 42760  43.0170 239.8407 0009126 170.5501 288.6634 15.10280415160108
ZHUHAI-1 01 (CAS 4A)    
1 42761U 17034D   20130.53641824  .00000062  00000-0  17206-4 0  9992
2 42761  43.0181 240.1945 0010246 150.6786 321.6555 15.09886576160087
CARTOSAT-2E             
1 42767U 17036C   20130.54629591  .00000423  00000-0  23271-4 0  9998
2 42767  97.4255 189.9083 0008818 166.2957 193.8520 15.19261804159627
FORMOSAT-5              
1 42920U 17049A   20130.47630859 -.00000054  00000-0 -24353-5 0  9999
2 42920  98.2991 209.9568 0012020  90.1978 270.0604 14.50847999143367
SENTINEL-5P             
1 42969U 17064A   20129.85135370 -.00000015  00000-0  13820-4 0  9999
2 42969  98.7334  69.5222 0001154  86.5795 273.5514 14.19553156133131
SKYSAT-C11              
1 42987U 17068A   20130.29924818  .00001223  00000-0  34700-4 0  9997
2 42987  97.2257 245.1146 0009880 183.1232 176.9954 15.38105343140067
SKYSAT-C10              
1 42988U 17068B   20130.35203859  .00001223  00000-0  34764-4 0  9990
2 42988  97.2300 244.9237 0002597 206.5859 153.5254 15.38075523140091
SKYSAT-C9               
1 42989U 17068C   20130.40505721  .00001235  00000-0  35104-4 0  9992
2 42989  97.2261 244.6124 0003336  87.6396 272.5231 15.38067200140298
SKYSAT-C8               
1 42990U 17068D   20130.33246578  .00001213  00000-0  34410-4 0  9993
2 42990  97.2297 245.2861 0002766 164.0775 196.0558 15.38144042140114
SKYSAT-C7               
1 42991U 17068E   20130.38545892  .00001244  00000-0  35312-4 0  9996
2 42991  97.2303 245.3346 0001741 112.5968 247.5461 15.38079630140122
SKYSAT-C6               
1 42992U 17068F   20130.50536067  .00001186  00000-0  33780-4 0  9997
2 42992  97.2316 245.6541 0003598 102.7188 257.4460 15.38080203140154
CARTOSAT-2F             
1 43111U 18004A   20130.53724589  .00000413  00000-0  22738-4 0  9996
2 43111  97.3882 191.0649 0004231 174.4757 300.1653 15.19281058128801
MICROSAT-TD             
1 43128U 18004T   20130.22521626  .00024525  00000-0  13634-3 0  9991
2 43128  96.7552 183.4536 0004681 316.3678  43.7220 15.79469637133199
NUSAT-4 (ADA)           
1 43195U 18015D   20130.55783932  .00001020  00000-0  44391-4 0  9993
2 43195  97.4333 259.5360 0016112 231.1757 260.1611 15.24450531125960
NUSAT-5 (MARYAM)        
1 43204U 18015K   20130.55148509  .00001057  00000-0  45634-4 0  9990
2 43204  97.4333 259.7266 0015539 233.5377 257.1752 15.24657001125574
GAOFEN 1-02             
1 43259U 18031A   20130.48349302  .00000067  00000-0  16901-4 0  9999
2 43259  97.9648 209.3643 0003892 334.5030  25.5990 14.76448323113675
GAOFEN 1-03             
1 43260U 18031B   20130.46091461  .00000050  00000-0  14545-4 0  9993
2 43260  97.9645 209.3532 0006267  43.3513 316.8191 14.76450306113663
GAOFEN 1-04             
1 43262U 18031D   20130.50603421  .00000016  00000-0  95688-5 0  9995
2 43262  97.9654 209.3625 0003528 350.6850   9.4297 14.76452832113661
SENTINEL-3B             
1 43437U 18039A   20130.19931592  .00000010  00000-0  22227-4 0  9997
2 43437  98.6304 197.4528 0000877  82.2579 277.8701 14.26735360106145
GAOFEN 5                
1 43461U 18043A   20130.49746209  .00000011  00000-0  12253-4 0  9990
2 43461  98.1954  68.2044 0002406 127.3696 232.7707 14.57760131106624
GAOFEN 6                
1 43484U 18048A   20130.46538877  .00000038  00000-0  12794-4 0  9996
2 43484  97.9865 210.7147 0010004 153.8222 206.3499 14.76491258104363
GAOFEN 11               
1 43585U 18063A   20130.54720696  .00000623  00000-0  28902-4 0  9994
2 43585  97.3840 210.7858 0016841   0.6317 123.1468 15.23588413 99313
AEOLUS                  
1 43600U 18066A   20130.07014579  .00026633  00000-0  10619-3 0  9993
2 43600  96.7206 137.0584 0005962  99.0469 261.1479 15.86567722 99122
ICESAT-2                
1 43613U 18070A   20130.53277943  .00001163  00000-0  42063-4 0  9999
2 43613  92.0014  50.8957 0003481  93.4300 266.7347 15.28270634 91940
HYSIS                   
1 43719U 18096A   20130.50436904  .00000118  00000-0  23052-4 0  9991
2 43719  97.9055 198.3921 0010658   2.2293 357.8966 14.78735057 77928
KAZSTSAT                
1 43783U 18099AB  20130.19387303  .00000001  00000-0  53991-5 0  9995
2 43783  97.7198 202.1809 0007440 322.1844  37.8852 14.93609043 77971
SAUDISAT 5A             
1 43831U 18102A   20130.56069367  .00000535  00000-0  38821-4 0  9998
2 43831  97.5721 207.1269 0012923 293.2898 177.8668 15.08038669 78270
SAUDISAT 5B             
1 43833U 18102C   20130.54313407 -.00000007  00000-0  36330-5 0  9994
2 43833  97.5715 207.4496 0013911 302.7492 171.1609 15.08476359 78289
GAOFEN 10R              
1 44622U 19066A   20130.50210364  .00000089  00000-0  18203-4 0  9992
2 44622  97.8148  74.8664 0001654  60.3273 299.8100 14.80663353 32215
CARTOSAT-3              
1 44804U 19081A   20130.47994950  .00000369  00000-0  20981-4 0  9994
2 44804  97.4991 191.5143 0016239  30.0887  97.3083 15.18820356 24883
GAOFEN 12               
1 44819U 19082A   20130.48272814 -.00000010  00000-0  54717-5 0  9999
2 44819  97.9161 153.0428 0002024  93.5991 266.5455 14.80205894 24187
NUSAT-7 (SOPHIE)        
1 45017U 20003B   20130.53194395  .00000780  00000-0  31662-4 0  9994
2 45017  97.3191 197.4071 0012022 219.6753 140.3608 15.27498302 17616
NUSAT-8 (MARIE)         
1 45018U 20003C   20130.48419261  .00000719  00000-0  29612-4 0  9995
2 45018  97.3208 197.3431 0011293 216.0970 143.9508 15.27265181 17600
